OBJECTID,TOWNS,COUNTY,ZIPCODE,LATITUDE,LONGITUDE,REGION
1,Avenel,Middlesex,7001,,,CENTRAL
2,Carteret,Middlesex,7008,,.,CENTRAL
3,Port Reading,Middlesex,7064,,,CENTRAL
4,Colonia,Middlesex,7067,,,CENTRAL
5,Sewaren,Middlesex,7077,,,CENTRAL
6,South Plainfield,Middlesex,7080,,,CENTRAL
7,Woodbridge,Middlesex,7095,,,CENTRAL
8,Cranbury,Middlesex,8512,,,CENTRAL
9,Plainsboro,Middlesex,8536,,,CENTRAL
10,Dayton,Middlesex,8810,,,CENTRAL
11,Dunellen,Middlesex,8812,,,CENTRAL
12,East Brunswick,Middlesex,8816,,,CENTRAL
13,Edison,Middlesex,8817,,,CENTRAL
14,Edison,Middlesex,8818,,,CENTRAL
15,Edison,Middlesex,8820,,,CENTRAL
16,Kendall Park,Middlesex,8824,,,CENTRAL
17,Helmetta,Middlesex,8828,,,CENTRAL
18,Iselin,Middlesex,8830,,,CENTRAL
19,Monroe Township,Middlesex,8831,,,CENTRAL
20,Keasbey,Middlesex,8832,,,CENTRAL
21,Edison,Middlesex,8837,,,CENTRAL
22,Metuchen,Middlesex,8840,,,CENTRAL
23,Middlesex,Middlesex,8846,,,CENTRAL
24,Milltown,Middlesex,8850,,,CENTRAL
25,Monmouth Junction,Middlesex,8852,,,CENTRAL
26,Piscataway,Middlesex,8854,,,CENTRAL
27,Piscataway,Middlesex,8855,,,CENTRAL
28,Old Bridge,Middlesex,8857,,,CENTRAL
29,Parlin,Middlesex,8859,,,CENTRAL
30,Perth Amboy,Middlesex,8861,,,CENTRAL
31,Perth Amboy,Middlesex,8862,,,CENTRAL
32,Fords,Middlesex,8863,,,CENTRAL
33,Sayreville,Middlesex,8871,,,CENTRAL
34,Sayreville,Middlesex,8872,,,CENTRAL
35,South Amboy,Middlesex,8879,,,CENTRAL
36,South River,Middlesex,8882,,,CENTRAL
37,Spotswood,Middlesex,8884,,,CENTRAL
38,Edison,Middlesex,8899,,,CENTRAL
39,New Brunswick,Middlesex,8901,,,CENTRAL
40,North Brunswick,Middlesex,8902,,,CENTRAL
41,New Brunswick,Middlesex,8903,,,CENTRAL
42,Highland Park,Middlesex,8904,,,CENTRAL
43,New Brunswick,Middlesex,8905,,,CENTRAL
44,New Brunswick,Middlesex,8906,,,CENTRAL
45,New Brunswick,Middlesex,8922,,,CENTRAL
46,New Brunswick,Middlesex,8933,,,CENTRAL
47,New Brunswick,Middlesex,8988,,,CENTRAL
48,New Brunswick,Middlesex,8989,,,CENTRAL
49,Bayonne,Hudson,7002,,,NORTHEASTERN
50,Harrison,Hudson,7029,,,NORTHEASTERN
51,Hoboken,Hudson,7030,,,NORTHEASTERN
52,Kearny,Hudson,7032,,,NORTHEASTERN
53,North Bergen,Hudson,7047,,,NORTHEASTERN
54,Weehawken,Hudson,7086,,,NORTHEASTERN
55,Union City,Hudson,7087,,,NORTHEASTERN
56,West New York,Hudson,7093,,,NORTHEASTERN
57,Secaucus,Hudson,7094,,,NORTHEASTERN
58,Secaucus,Hudson,7096,,,NORTHEASTERN
59,Jersey City,Hudson,7097,,,NORTHEASTERN
60,Kearny,Hudson,7099,,,NORTHEASTERN
61,Jersey City,Hudson,7302,,,NORTHEASTERN
62,Jersey City,Hudson,7303,,,NORTHEASTERN
63,Jersey City,Hudson,7304,,,NORTHEASTERN
64,Jersey City,Hudson,7305,,,NORTHEASTERN
65,Jersey City,Hudson,7306,,,NORTHEASTERN
66,Jersey City,Hudson,7307,,,NORTHEASTERN
67,Jersey City,Hudson,7308,,,NORTHEASTERN
68,Jersey City,Hudson,7309,,,NORTHEASTERN
69,Jersey City,Hudson,7310,,,NORTHEASTERN
70,Jersey City,Hudson,7311,,,NORTHEASTERN
71,Jersey City,Hudson,7395,,,NORTHEASTERN
72,Jersey City,Hudson,7399,,,NORTHEASTERN
73,Bloomfield,Essex,7003,,,NORTHEASTERN
74,Fairfield,Essex,7004,,,NORTHEASTERN
75,Caldwell,Essex,7006,,,NORTHEASTERN
76,Caldwell,Essex,7007,,,NORTHEASTERN
77,Cedar Grove,Essex,7009,,,NORTHEASTERN
78,East Orange,Essex,7017,,,NORTHEASTERN
79,East Orange,Essex,7018,,,NORTHEASTERN
80,East Orange,Essex,7019,,,NORTHEASTERN
81,Essex Fells,Essex,7021,,,NORTHEASTERN
82,Glen Ridge,Essex,7028,,,NORTHEASTERN
83,Livingston,Essex,7039,,,NORTHEASTERN
84,Maplewood,Essex,7040,,,NORTHEASTERN
85,Millburn,Essex,7041,,,NORTHEASTERN
86,Montclair,Essex,7042,,,NORTHEASTERN
87,Montclair,Essex,7043,,,NORTHEASTERN
88,Verona,Essex,7044,,,NORTHEASTERN
89,Orange,Essex,7050,,,NORTHEASTERN
90,Orange,Essex,7051,,,NORTHEASTERN
91,West Orange,Essex,7052,,,NORTHEASTERN
92,Roseland,Essex,7068,,,NORTHEASTERN
93,Short Hills,Essex,7078,,,NORTHEASTERN
94,South Orange,Essex,7079,,,NORTHEASTERN
95,Newark,Essex,7101,,,NORTHEASTERN
96,Newark,Essex,7102,,,NORTHEASTERN
97,Newark,Essex,7103,,,NORTHEASTERN
99,Newark,Essex,7104,,,NORTHEASTERN
100,Newark,Essex,7105,,,NORTHEASTERN
101,Newark,Essex,7106,,,NORTHEASTERN
102,Newark,Essex,7107,,,NORTHEASTERN
103,Newark,Essex,7108,,,NORTHEASTERN
104,Belleville,Essex,7109,,,NORTHEASTERN
105,Nutley,Essex,7110,,,NORTHEASTERN
106,Irvington,Essex,7111,,,NORTHEASTERN
107,Newark,Essex,7112,,,NORTHEASTERN
108,Newark,Essex,7114,,,NORTHEASTERN
109,Newark,Essex,7175,,,NORTHEASTERN
110,Newark,Essex,7182,,,NORTHEASTERN
111,Newark,Essex,7184,,,NORTHEASTERN
112,Newark,Essex,7188,,,NORTHEASTERN
113,Newark,Essex,7189,,,NORTHEASTERN
114,Newark,Essex,7191,,,NORTHEASTERN
115,Newark,Essex,7192,,,NORTHEASTERN
116,Newark,Essex,7193,,,NORTHEASTERN
117,Newark,Essex,7194,,,NORTHEASTERN
118,Newark,Essex,7195,,,NORTHEASTERN
119,Newark,Essex,7198,,,NORTHEASTERN
120,Newark,Essex,7199,,,NORTHEASTERN
121,Boonton,Morris,7005,,,NORTHEASTERN
122,Lake Hiawatha,Morris,7034,,,NORTHEASTERN
123,Lincoln Park,Morris,7035,,,NORTHEASTERN
124,Montville,Morris,7045,,,NORTHEASTERN
125,Mountain Lakes,Morris,7046,,,NORTHEASTERN
126,Parsippany,Morris,7054,,,NORTHEASTERN
127,Pine Brook,Morris,7058,,,NORTHEASTERN
128,Towaco,Morris,7082,,,NORTHEASTERN
129,Butler,Morris,7405,,,NORTHEASTERN
130,Pequannock,Morris,7440,,,NORTHEASTERN
131,Pompton Plains,Morris,7444,,,NORTHEASTERN
132,Riverdale,Morris,7457,,,NORTHEASTERN
133,Dover,Morris,7801,,,NORTHEASTERN
134,Dover,Morris,7802,,,NORTHEASTERN
135,Mine Hill,Morris,7803,,,NORTHEASTERN
136,Picatinny Arsenal,Morris,7806,,,NORTHEASTERN
137,Budd Lake,Morris,7828,,,NORTHEASTERN
138,Denville,Morris,7834,,,NORTHEASTERN
139,Flanders,Morris,7836,,,NORTHEASTERN
140,Hibernia,Morris,7842,,,NORTHEASTERN
141,Ironia,Morris,7845,,,NORTHEASTERN
142,Kenvil,Morris,7847,,,NORTHEASTERN
143,Lake Hopatcong,Morris,7849,,,NORTHEASTERN
144,Landing,Morris,7850,,,NORTHEASTERN
145,Ledgewood,Morris,7852,,,NORTHEASTERN
146,Long Valley,Morris,7853,,,NORTHEASTERN
147,Mount Arlington,Morris,7856,,,NORTHEASTERN
148,Netcong,Morris,7857,,,NORTHEASTERN
149,Rockaway,Morris,7866,,,NORTHEASTERN
150,Randolph,Morris,7869,,,NORTHEASTERN
151,Schooleys Mountain,Morris,7870,,,NORTHEASTERN
152,Succasunna,Morris,7876,,,NORTHEASTERN
153,Mount Tabor,Morris,7878,,,NORTHEASTERN
154,Wharton,Morris,7885,,,NORTHEASTERN
155,Brookside,Morris,7926,,,NORTHEASTERN
156,Cedar Knolls,Morris,7927,,,NORTHEASTERN
157,Chatham,Morris,7928,,,NORTHEASTERN
158,Chester,Morris,7930,,,NORTHEASTERN
159,Florham Park,Morris,7932,,,NORTHEASTERN
160,Gillette,Morris,7933,,,NORTHEASTERN
161,Green Village,Morris,7935,,,NORTHEASTERN
162,East Hanover,Morris,7936,,,NORTHEASTERN
163,Madison,Morris,7940,,,NORTHEASTERN
164,Mendham,Morris,7945,,,NORTHEASTERN
165,Millington,Morris,7946,,,NORTHEASTERN
166,Greystone Park,Morris,7950,,,NORTHEASTERN
167,Morris Plains,Morris,7950,,,NORTHEASTERN
168,Morristown,Morris,7960,,,NORTHEASTERN
169,Morristown,Morris,7961,,,NORTHEASTERN
170,Morristown,Morris,7962,,,NORTHEASTERN
171,Morristown,Morris,7963,,,NORTHEASTERN
172,Mount Freedom,Morris,7970,,,NORTHEASTERN
173,New Vernon,Morris,7976,,,NORTHEASTERN
174,Stirling,Morris,7980,,,NORTHEASTERN
175,Whippany,Morris,7981,,,NORTHEASTERN
176,Whippany,Morris,7983,,,NORTHEASTERN
177,Whippany,Morris,7999,,,NORTHEASTERN
178,Cliffside Park,Bergen,7010,,,NORTHEASTERN
179,Edgewater,Bergen,7020,,,NORTHEASTERN
180,Fairview,Bergen,7022,,,NORTHEASTERN
181,Fort Lee,Bergen,7024,,,NORTHEASTERN
182,Garfield,Bergen,7026,,,NORTHEASTERN
183,North Arlington,Bergen,7031,,,NORTHEASTERN
184,Wallington,Bergen,7057,,,NORTHEASTERN
185,Rutherford,Bergen,7070,,,NORTHEASTERN
186,Lyndhurst,Bergen,7071,,,NORTHEASTERN
187,Carlstadt,Bergen,7072,,,NORTHEASTERN
188,East Rutherford,Bergen,7073,,,NORTHEASTERN
189,Moonachie,Bergen,7074,,,NORTHEASTERN
190,Wood Ridge,Bergen,7075,,,NORTHEASTERN
191,Allendale,Bergen,7401,,,NORTHEASTERN
192,Elmwood Park,Bergen,7407,,,NORTHEASTERN
193,Fair Lawn,Bergen,7410,,,NORTHEASTERN
194,Franklin Lakes,Bergen,7417,,,NORTHEASTERN
195,Ho Ho Kus,Bergen,7423,,,NORTHEASTERN
196,Mahwah,Bergen,7430,,,NORTHEASTERN
197,Midland Park,Bergen,7432,,,NORTHEASTERN
198,Oakland,Bergen,7436,,,NORTHEASTERN
199,Ramsey,Bergen,7446,,,NORTHEASTERN
200,Ridgewood,Bergen,7450,,,NORTHEASTERN
201,Ridgewood,Bergen,7451,,,NORTHEASTERN
202,Glen Rock,Bergen,7452,,,NORTHEASTERN
203,Saddle River,Bergen,7458,,,NORTHEASTERN
204,Waldwick,Bergen,7463,,,NORTHEASTERN
205,Wyckoff,Bergen,7481,,,NORTHEASTERN
206,Mahwah,Bergen,7495,,,NORTHEASTERN
207,Hackensack,Bergen,7601,,,NORTHEASTERN
208,Hackensack,Bergen,7602,,,NORTHEASTERN
209,Bogota,Bergen,7603,,,NORTHEASTERN
210,Hasbrouck Heights,Bergen,7604,,,NORTHEASTERN
211,Leonia,Bergen,7605,,,NORTHEASTERN
212,South Hackensack,Bergen,7606,,,NORTHEASTERN
213,Maywood,Bergen,7607,,,NORTHEASTERN
214,Teterboro,Bergen,7608,,,NORTHEASTERN
215,Alpine,Bergen,7620,,,NORTHEASTERN
216,Bergenfield,Bergen,7621,,,NORTHEASTERN
217,Closter,Bergen,7624,,,NORTHEASTERN
218,Cresskill,Bergen,7626,,,NORTHEASTERN
219,Demarest,Bergen,7627,,,NORTHEASTERN
220,Dumont,Bergen,7628,,,NORTHEASTERN
221,Emerson,Bergen,7630,,,NORTHEASTERN
222,Englewood,Bergen,7631,,,NORTHEASTERN
223,Englewood Cliffs,Bergen,7632,,,NORTHEASTERN
224,Harrington Park,Bergen,7640,,,NORTHEASTERN
225,Haworth,Bergen,7641,,,NORTHEASTERN
226,Hillsdale,Bergen,7642,,,NORTHEASTERN
227,Little Ferry,Bergen,7643,,,NORTHEASTERN
228,Lodi,Bergen,7644,,,NORTHEASTERN
229,Montvale,Bergen,7645,,,NORTHEASTERN
230,New Milford,Bergen,7646,,,NORTHEASTERN
231,Northvale,Bergen,7647,,,NORTHEASTERN
232,Norwood,Bergen,7648,,,NORTHEASTERN
233,Oradell,Bergen,7649,,,NORTHEASTERN
234,Palisades Park,Bergen,7650,,,NORTHEASTERN
235,Paramus,Bergen,7652,,,NORTHEASTERN
236,Paramus,Bergen,7653,,,NORTHEASTERN
237,Park Ridge,Bergen,7656,,,NORTHEASTERN
238,Ridgefield,Bergen,7657,,,NORTHEASTERN
239,Ridgefield Park,Bergen,7660,,,NORTHEASTERN
240,River Edge,Bergen,7661,,,NORTHEASTERN
241,Rochelle Park,Bergen,7662,,,NORTHEASTERN
242,Saddle Brook,Bergen,7663,,,NORTHEASTERN
243,Teaneck,Bergen,7666,,,NORTHEASTERN
244,Tenafly,Bergen,7670,,,NORTHEASTERN
245,Westwood,Bergen,7675,,,NORTHEASTERN
246,Township Of Washington,Bergen,7676,,,NORTHEASTERN
247,Woodcliff Lake,Bergen,7677,,,NORTHEASTERN
248,Teterboro,Bergen,7699,,,NORTHEASTERN
249,Cranford,Union,7016,,,NORTHEASTERN
250,Fanwood,Union,7023,,,NORTHEASTERN
251,Garwood,Union,7027,,,NORTHEASTERN
252,Kenilworth,Union,7033,,,NORTHEASTERN
253,Linden,Union,7036,,,NORTHEASTERN
254,Plainfield,Union,7060,,,NORTHEASTERN
255,Plainfield,Union,7061,,,NORTHEASTERN
256,Plainfield,Union,7062,,,NORTHEASTERN
257,Plainfield,Union,7063,,,NORTHEASTERN
258,Rahway,Union,7065,,,NORTHEASTERN
259,Clark,Union,7066,,,NORTHEASTERN
260,Scotch Plains,Union,7076,,,NORTHEASTERN
261,Springfield,Union,7081,,,NORTHEASTERN
262,Union,Union,7083,,,NORTHEASTERN
263,Vauxhall,Union,7088,,,NORTHEASTERN
264,Westfield,Union,7090,,,NORTHEASTERN
265,Westfield,Union,7091,,,NORTHEASTERN
266,Mountainside,Union,7092,,,NORTHEASTERN
267,Elizabeth,Union,7201,,,NORTHEASTERN
268,Elizabeth,Union,7202,,,NORTHEASTERN
269,Roselle,Union,7203,,,NORTHEASTERN
270,Roselle Park,Union,7204,,,NORTHEASTERN
271,Hillside,Union,7205,,,NORTHEASTERN
272,Elizabeth,Union,7206,,,NORTHEASTERN
273,Elizabeth,Union,7207,,,NORTHEASTERN
274,Elizabeth,Union,7208,,,NORTHEASTERN
275,Summit,Union,7901,,,NORTHEASTERN
276,Summit,Union,7902,,,NORTHEASTERN
277,Berkeley Heights,Union,7922,,,NORTHEASTERN
278,New Providence,Union,7974,,,NORTHEASTERN
279,Clifton,Passiac,7011,,,NORTHEASTERN
280,Clifton,Passiac,7012,,,NORTHEASTERN
281,Clifton,Passiac,7013,,,NORTHEASTERN
282,Clifton,Passiac,7014,,,NORTHEASTERN
283,Clifton,Passiac,7015,,,NORTHEASTERN
284,Passaic,Passiac,7055,,,NORTHEASTERN
285,Bloomingdale,Passiac,7403,,,NORTHEASTERN
286,Haskell,Passiac,7420,,,NORTHEASTERN
287,Hewitt,Passiac,7421,,,NORTHEASTERN
288,Little Falls,Passiac,7424,,,NORTHEASTERN
289,Newfoundland,Passiac,7435,,,NORTHEASTERN
290,Oak Ridge,Passiac,7438,,,NORTHEASTERN
291,Pompton Lakes,Passiac,7442,,,NORTHEASTERN
292,Ringwood,Passiac,7456,,,NORTHEASTERN
293,Wanaque,Passiac,7465,,,NORTHEASTERN
294,Wayne,Passiac,7470,,,NORTHEASTERN
295,Wayne,Passiac,7474,,,NORTHEASTERN
296,Wayne,Passiac,7477,,,NORTHEASTERN
297,West Milford,Passiac,7480,,,NORTHEASTERN
298,Paterson,Passiac,7501,,,NORTHEASTERN
299,Paterson,Passiac,7502,,,NORTHEASTERN
300,Paterson,Passiac,7503,,,NORTHEASTERN
301,Paterson,Passiac,7504,,,NORTHEASTERN
302,Paterson,Passiac,7505,,,NORTHEASTERN
303,Hawthorne,Passiac,7506,,,NORTHEASTERN
304,Hawthorne,Passiac,7507,,,NORTHEASTERN
305,Haledon,Passiac,7508,,,NORTHEASTERN
306,Paterson,Passiac,7509,,,NORTHEASTERN
307,Paterson,Passiac,7510,,,NORTHEASTERN
308,Totowa,Passiac,7511,,,NORTHEASTERN
309,Totowa,Passiac,7512,,,NORTHEASTERN
310,Paterson,Passiac,7513,,,NORTHEASTERN
311,Paterson,Passiac,7514,,,NORTHEASTERN
312,Paterson,Passiac,7522,,,NORTHEASTERN
313,Paterson,Passiac,7524,,,NORTHEASTERN
314,Paterson,Passiac,7533,,,NORTHEASTERN
315,Haledon,Passiac,7538,,,NORTHEASTERN
316,Paterson,Passiac,7543,,,NORTHEASTERN
317,Paterson,Passiac,7544,,,NORTHEASTERN
318,Warren,Somerset,7059,,,CENTRAL
319,Watchung,Somerset,7069,,,CENTRAL
320,Basking Ridge,Somerset,7920,,,CENTRAL
321,Bedminster,Somerset,7921,,,CENTRAL
322,Bernardsville,Somerset,7924,,,CENTRAL
323,Far Hills,Somerset,7931,,,CENTRAL
324,Gladstone,Somerset,7934,,,CENTRAL
325,Liberty Corner,Somerset,7938,,,CENTRAL
326,Lyons,Somerset,7939,,,CENTRAL
327,Peapack,Somerset,7977,,,CENTRAL
328,Pluckemin,Somerset,7978,,,CENTRAL
329,Belle Mead,Somerset,8502,,,CENTRAL
330,Blawenburg,Somerset,8504,,,CENTRAL
331,Kingston,Somerset,8528,,,CENTRAL
332,Rocky Hill,Somerset,8553,,,CENTRAL
333,Skillman,Somerset,8558,,,CENTRAL
334,Bound Brook,Somerset,8805,,,CENTRAL
335,Bridgewater,Somerset,8807,,,CENTRAL
336,Flagtown,Somerset,8821,,,CENTRAL
337,Franklin Park,Somerset,8823,,,CENTRAL
338,Manville,Somerset,8835,,,CENTRAL
339,Martinsville,Somerset,8836,,,CENTRAL
340,Hillsborough,Somerset,8844,,,CENTRAL
341,Neshanic Station,Somerset,8853,,,CENTRAL
342,Raritan,Somerset,8869,,,CENTRAL
343,Somerset,Somerset,8873,,,CENTRAL
344,Somerset,Somerset,8875,,,CENTRAL
345,Somerville,Somerset,8876,,,CENTRAL
346,South Bound Brook,Somerset,8880,,,CENTRAL
347,Zarephath,Somerset,8890,,,CENTRAL
348,Raritan,Somerset,8896,,,CENTRAL
349,Hightstown,Mercer,8520,,,CENTRAL
350,Hopewell,Mercer,8525,,,CENTRAL
351,Pennington,Mercer,8534,,,CENTRAL
352,Princeton,Mercer,8540,,,CENTRAL
353,Princeton,Mercer,8541,,,CENTRAL
354,Princeton,Mercer,8542,,,CENTRAL
355,Princeton,Mercer,8543,,,CENTRAL
356,Princeton,Mercer,8544,,,CENTRAL
357,Princeton Junction,Mercer,8550,,,CENTRAL
358,Titusville,Mercer,8560,,,CENTRAL
359,Windsor,Mercer,8561,,,CENTRAL
360,Trenton,Mercer,8601,,,CENTRAL
361,Trenton,Mercer,8602,,,CENTRAL
362,Trenton,Mercer,8603,,,CENTRAL
363,Trenton,Mercer,8604,,,CENTRAL
364,Trenton,Mercer,8605,,,CENTRAL
365,Trenton,Mercer,8606,,,CENTRAL
366,Trenton,Mercer,8607,,,CENTRAL
367,Trenton,Mercer,8608,,,CENTRAL
368,Trenton,Mercer,8609,,,CENTRAL
369,Trenton,Mercer,8610,,,CENTRAL
370,Trenton,Mercer,8611,,,CENTRAL
371,Trenton,Mercer,8618,,,CENTRAL
372,Trenton,Mercer,8619,,,CENTRAL
373,Trenton,Mercer,8620,,,CENTRAL
374,Trenton,Mercer,8625,,,CENTRAL
375,Trenton,Mercer,8628,,,CENTRAL
376,Trenton,Mercer,8629,,,CENTRAL
377,Trenton,Mercer,8638,,,CENTRAL
378,Trenton,Mercer,8645,,,CENTRAL
379,Trenton,Mercer,8646,,,CENTRAL
380,Trenton,Mercer,8647,,,CENTRAL
381,Trenton,Mercer,8648,,,CENTRAL
382,Trenton,Mercer,8650,,,CENTRAL
383,Trenton,Mercer,8666,,,CENTRAL
384,Trenton,Mercer,8677,,,CENTRAL
385,Trenton,Mercer,8690,,,CENTRAL
386,Trenton,Mercer,8691,,,CENTRAL
387,Trenton,Mercer,8695,,,CENTRAL
388,Califon,Hunterdon,7830,,,CENTRAL
389,Pottersville,Hunterdon,7979,,,CENTRAL
390,Lambertville,Hunterdon,8530,,,CENTRAL
391,Ringoes,Hunterdon,8551,,,CENTRAL
392,Rosemont,Hunterdon,8556,,,CENTRAL
393,Sergeantsville,Hunterdon,8557,,,CENTRAL
394,Stockton,Hunterdon,8559,,,CENTRAL
395,Annandale,Hunterdon,8801,,,CENTRAL
396,Asbury,Hunterdon,8802,,,CENTRAL
397,Baptistown,Hunterdon,8803,,,CENTRAL
398,Bloomsbury,Hunterdon,8804,,,CENTRAL
399,Clinton,Hunterdon,8809,,,CENTRAL
400,Flemington,Hunterdon,8822,,,CENTRAL
401,Frenchtown,Hunterdon,8825,,,CENTRAL
402,Glen Gardner,Hunterdon,8826,,,CENTRAL
403,Hampton,Hunterdon,8827,,,CENTRAL
404,High Bridge,Hunterdon,8829,,,CENTRAL
405,Lebanon,Hunterdon,8833,,,CENTRAL
406,Little York,Hunterdon,8834,,,CENTRAL
407,Milford,Hunterdon,8848,,,CENTRAL
408,Oldwick,Hunterdon,8858,,,CENTRAL
409,Pittstown,Hunterdon,8867,,,CENTRAL
410,Quakertown,Hunterdon,8868,,,CENTRAL
411,Readington,Hunterdon,8870,,,CENTRAL
412,Stanton,Hunterdon,8885,,,CENTRAL
413,Three Bridges,Hunterdon,8887,,,CENTRAL
414,Whitehouse,Hunterdon,8888,,,CENTRAL
415,Whitehouse Station,Hunterdon,8889,,,CENTRAL
416,Franklin,Sussex,7416,,,NORTHWESTERN
417,Glenwood,Sussex,7418,,,NORTHWESTERN
418,Hamburg,Sussex,7419,,,NORTHWESTERN
419,Highland Lakes,Sussex,7422,,,NORTHWESTERN
420,Mc Afee,Sussex,7428,,,NORTHWESTERN
421,Ogdensburg,Sussex,7439,,,NORTHWESTERN
422,Stockholm,Sussex,7460,,,NORTHWESTERN
423,Sussex,Sussex,7461,,,NORTHWESTERN
424,Vernon,Sussex,7462,,,NORTHWESTERN
425,Andover,Sussex,7821,,,NORTHWESTERN
426,Augusta,Sussex,7822,,,NORTHWESTERN
427,Branchville,Sussex,7826,,,NORTHWESTERN
428,Montague,Sussex,7827,,,NORTHWESTERN
429,Glasser,Sussex,7837,,,NORTHWESTERN
430,Greendell,Sussex,7839,,,NORTHWESTERN
431,Hopatcong,Sussex,7843,,,NORTHWESTERN
432,Lafayette,Sussex,7848,,,NORTHWESTERN
433,Layton,Sussex,7851,,,NORTHWESTERN
434,Middleville,Sussex,7855,,,NORTHWESTERN
435,Newton,Sussex,7860,,,NORTHWESTERN
436,Sparta,Sussex,7871,,,NORTHWESTERN
437,Stanhope,Sussex,7874,,,NORTHWESTERN
438,Stillwater,Sussex,7875,,,NORTHWESTERN
439,Swartswood,Sussex,7877,,,NORTHWESTERN
440,Tranquility,Sussex,7879,,,NORTHWESTERN
441,Wallpack Center,Sussex,7881,,,NORTHWESTERN
442,Branchville,Sussex,7890,,,NORTHWESTERN
443,Allamuchy,Warren,7820,,,NORTHWESTERN
444,Belvidere,Warren,7823,,,NORTHWESTERN
445,Blairstown,Warren,7825,,,NORTHWESTERN
446,Buttzville,Warren,7829,,,NORTHWESTERN
447,Changewater,Warren,7831,,,NORTHWESTERN
448,Columbia,Warren,7832,,,NORTHWESTERN
449,Delaware,Warren,7833,,,NORTHWESTERN
450,Great Meadows,Warren,7838,,,NORTHWESTERN
451,Hackettstown,Warren,7840,,,NORTHWESTERN
452,Hope,Warren,7844,,,NORTHWESTERN
453,Johnsonburg,Warren,7846,,,NORTHWESTERN
454,Oxford,Warren,7863,,,NORTHWESTERN
455,Port Murray,Warren,7865,,,NORTHWESTERN
456,Vienna,Warren,7880,,,NORTHWESTERN
457,Washington,Warren,7882,,,NORTHWESTERN
458,Broadway,Warren,8808,,,NORTHWESTERN
459,Phillipsburg,Warren,8865,,,NORTHWESTERN
460,Stewartsville,Warren,8886,,,NORTHWESTERN
461,Bridgeport,GLOUCESTER,8014,,,SOUTHERN
462,Clarksboro,GLOUCESTER,8020,,,SOUTHERN
463,Ewan,GLOUCESTER,8025,,,SOUTHERN
464,Gibbstown,GLOUCESTER,8027,,,SOUTHERN
465,Glassboro,GLOUCESTER,8028,,,SOUTHERN
466,Grenloch,GLOUCESTER,8032,,,SOUTHERN
467,Harrisonville,GLOUCESTER,8039,,,SOUTHERN
468,Mantua,GLOUCESTER,8051,,,SOUTHERN
469,Mickleton,GLOUCESTER,8056,,,SOUTHERN
470,Mount Royal,GLOUCESTER,8061,,,SOUTHERN
471,Mullica Hill,GLOUCESTER,8062,,,SOUTHERN
472,National Park,GLOUCESTER,8063,,,SOUTHERN
473,Paulsboro,GLOUCESTER,8066,,,SOUTHERN
474,Pitman,GLOUCESTER,8071,,,SOUTHERN
475,Richwood,GLOUCESTER,8074,,,SOUTHERN
476,Sewell,GLOUCESTER,8080,,,SOUTHERN
477,Swedesboro,GLOUCESTER,8085,,,SOUTHERN
478,Thorofare,GLOUCESTER,8086,,,SOUTHERN
479,Wenonah,GLOUCESTER,8090,,,SOUTHERN
480,Westville,GLOUCESTER,8093,,,SOUTHERN
481,Williamstown,GLOUCESTER,8094,,,SOUTHERN
482,Woodbury,GLOUCESTER,8096,,,SOUTHERN
483,Deptford,GLOUCESTER,8096,,,SOUTHERN
484,Woodbury Heights,GLOUCESTER,8097,,,SOUTHERN
485,Clayton,GLOUCESTER,8312,,,SOUTHERN
486,Franklinville,GLOUCESTER,8322,,,SOUTHERN
487,Malaga,GLOUCESTER,8328,,,SOUTHERN
488,Newfield,GLOUCESTER,8344,,,SOUTHERN
489,Alloway,SALEM,8001,,,SOUTHERN
490,Deepwater,SALEM,8023,,,SOUTHERN
491,Hancocks Bridge,SALEM,8038,,,SOUTHERN
492,Pedricktown,SALEM,8067,,,SOUTHERN
493,Penns Grove,SALEM,8069,,,SOUTHERN
494,Pennsville,SALEM,8070,,,SOUTHERN
495,Quinton,SALEM,8072,,,SOUTHERN
496,Salem,SALEM,8079,,,SOUTHERN
497,Woodstown,SALEM,8098,,,SOUTHERN
498,Elmer,SALEM,8318,,,SOUTHERN
499,Monroeville,SALEM,8343,,,SOUTHERN
500,Norma,SALEM,8347,,,SOUTHERN
501,Bridgeton,CUMBERLAND,8302,,,SOUTHERN
502,Cedarville,CUMBERLAND,8311,,,SOUTHERN
503,Deerfield Street,CUMBERLAND,8313,,,SOUTHERN
504,Delmont,CUMBERLAND,8314,,,SOUTHERN
505,Dividing Creek,CUMBERLAND,8315,,,SOUTHERN
506,Dorchester,CUMBERLAND,8316,,,SOUTHERN
507,Fairton,CUMBERLAND,8320,,,SOUTHERN
508,Fortescue,CUMBERLAND,8321,,,SOUTHERN
509,Greenwich,CUMBERLAND,8323,,,SOUTHERN
510,Heislerville,CUMBERLAND,8324,,,SOUTHERN
511,Leesburg,CUMBERLAND,8327,,,SOUTHERN
512,Mauricetown,CUMBERLAND,8329,,,SOUTHERN
513,Millville,CUMBERLAND,8332,,,SOUTHERN
514,Newport,CUMBERLAND,8345,,,SOUTHERN
515,Port Elizabeth,CUMBERLAND,8348,,,SOUTHERN
516,Port Norris,CUMBERLAND,8349,,,SOUTHERN
517,Rosenhayn,CUMBERLAND,8352,,,SOUTHERN
518,Shiloh,CUMBERLAND,8353,,,SOUTHERN
519,Vineland,CUMBERLAND,8360,,,SOUTHERN
520,Vineland,CUMBERLAND,8361,,,SOUTHERN
521,Vineland,CUMBERLAND,8362,,,SOUTHERN
522,Cherry Hill,CAMDEN,8002,,,SOUTHERN
523,Cherry Hill,CAMDEN,8003,,,SOUTHERN
524,Atco,CAMDEN,8004,,,SOUTHERN
525,Barrington,CAMDEN,8007,,,SOUTHERN
526,Berlin,CAMDEN,8009,,,SOUTHERN
527,Blackwood,CAMDEN,8012,,,SOUTHERN
528,Cedar Brook,CAMDEN,8018,,,SOUTHERN
529,Clementon,CAMDEN,8021,,,SOUTHERN
530,Gibbsboro,CAMDEN,8026,,,SOUTHERN
531,Glendora,CAMDEN,8029,,,SOUTHERN
532,Gloucester City,CAMDEN,8030,,,SOUTHERN
533,Bellmawr,CAMDEN,8031,,,SOUTHERN
534,Haddonfield,CAMDEN,8033,,,SOUTHERN
535,Cherry Hill,CAMDEN,8034,,,SOUTHERN
536,Haddon Heights,CAMDEN,8035,,,SOUTHERN
537,Voorhees,CAMDEN,8043,,,SOUTHERN
538,Lawnside,CAMDEN,8045,,,SOUTHERN
539,Magnolia,CAMDEN,8049,,,SOUTHERN
540,Mount Ephraim,CAMDEN,8059,,,SOUTHERN
541,Runnemede,CAMDEN,8078,,,SOUTHERN
542,Sicklerville,CAMDEN,8081,,,SOUTHERN
543,Somerdale,CAMDEN,8083,,,SOUTHERN
544,Stratford,CAMDEN,8084,,,SOUTHERN
545,Waterford Works,CAMDEN,8089,,,SOUTHERN
546,West Berlin,CAMDEN,8091,,,SOUTHERN
547,Winslow,CAMDEN,8095,,,SOUTHERN
548,Bellmawr,CAMDEN,8099,,,SOUTHERN
549,Camden,CAMDEN,8101,,,SOUTHERN
550,Camden,CAMDEN,8102,,,SOUTHERN
551,Camden,CAMDEN,8103,,,SOUTHERN
552,Haddon Township,CAMDEN,8104,,,SOUTHERN
553,Camden,CAMDEN,8104,,,SOUTHERN
554,Camden,CAMDEN,8105,,,SOUTHERN
555,Audubon,CAMDEN,8106,,,SOUTHERN
556,Haddon Township,CAMDEN,8107,,,SOUTHERN
557,Oaklyn,CAMDEN,8107,,,SOUTHERN
558,Collingswood,CAMDEN,8108,,,SOUTHERN
559,Haddon Township,CAMDEN,8108,,,SOUTHERN
560,Merchantville,CAMDEN,8109,,,SOUTHERN
561,Pennsauken,CAMDEN,8110,,,SOUTHERN
562,Beverly,BURLINGTON,8010,,,SOUTHERN
563,Birmingham,BURLINGTON,8011,,,SOUTHERN
564,Browns Mills,BURLINGTON,8015,,,SOUTHERN
565,Burlington,BURLINGTON,8016,,,SOUTHERN
566,Chatsworth,BURLINGTON,8019,,,SOUTHERN
567,Columbus,BURLINGTON,8022,,,SOUTHERN
568,Hainesport,BURLINGTON,8036,,,SOUTHERN
569,Jobstown,BURLINGTON,8041,,,SOUTHERN
570,Juliustown,BURLINGTON,8042,,,SOUTHERN
571,Willingboro,BURLINGTON,8046,,,SOUTHERN
572,Lumberton,BURLINGTON,8048,,,SOUTHERN
573,Maple Shade,BURLINGTON,8052,,,SOUTHERN
574,Marlton,BURLINGTON,8053,,,SOUTHERN
575,Mount Laurel,BURLINGTON,8054,,,SOUTHERN
576,Medford,BURLINGTON,8055,,,SOUTHERN
577,Moorestown,BURLINGTON,8057,,,SOUTHERN
578,Mount Holly,BURLINGTON,8060,,,SOUTHERN
579,New Lisbon,BURLINGTON,8064,,,SOUTHERN
580,Palmyra,BURLINGTON,8065,,,SOUTHERN
581,Pemberton,BURLINGTON,8068,,,SOUTHERN
582,Rancocas,BURLINGTON,8073,,,SOUTHERN
583,Riverside,BURLINGTON,8075,,,SOUTHERN
584,Riverton,BURLINGTON,8076,,,SOUTHERN
585,Riverton,BURLINGTON,8077,,,SOUTHERN
586,Vincentown,BURLINGTON,8088,,,SOUTHERN
587,New Gretna,BURLINGTON,8224,,,SOUTHERN
588,Bordentown,BURLINGTON,8505,,,SOUTHERN
589,Cookstown,BURLINGTON,8511,,,SOUTHERN
590,Chesterfield,BURLINGTON,8515,,,SOUTHERN
591,Florence,BURLINGTON,8518,,,SOUTHERN
592,Roebling,BURLINGTON,8554,,,SOUTHERN
593,Wrightstown,BURLINGTON,8562,,,SOUTHERN
594,Fort Dix,BURLINGTON,8640,,,SOUTHERN
595,Trenton,BURLINGTON,8641,,,SOUTHERN
596,Hammonton,ATLANTIC,8037,,,COASTAL
597,Absecon,ATLANTIC,8201,,,COASTAL
598,Brigantine,ATLANTIC,8203,,,COASTAL
599,Absecon,ATLANTIC,8205,,,COASTAL
600,Cologne,ATLANTIC,8213,,,COASTAL
601,Egg Harbor City,ATLANTIC,8215,,,COASTAL
602,Elwood,ATLANTIC,8217,,,COASTAL
603,Leeds Point,ATLANTIC,8220,,,COASTAL
604,Linwood,ATLANTIC,8221,,,COASTAL
605,Northfield,ATLANTIC,8225,,,COASTAL
606,Oceanville,ATLANTIC,8231,,,COASTAL
607,Pleasantville,ATLANTIC,8232,,,COASTAL
608,Egg Harbor Township,ATLANTIC,8234,,,COASTAL
609,Pomona,ATLANTIC,8240,,,COASTAL
610,Port Republic,ATLANTIC,8241,,,COASTAL
611,Somers Point,ATLANTIC,8244,,,COASTAL
612,Buena,ATLANTIC,8310,,,COASTAL
613,Dorothy,ATLANTIC,8317,,,COASTAL
614,Estell Manor,ATLANTIC,8319,,,COASTAL
615,Landisville,ATLANTIC,8326,,,COASTAL
616,Mays Landing,ATLANTIC,8330,,,COASTAL
617,Milmay,ATLANTIC,8340,,,COASTAL
618,Minotola,ATLANTIC,8341,,,COASTAL
619,Mizpah,ATLANTIC,8342,,,COASTAL
620,Newtonville,ATLANTIC,8346,,,COASTAL
621,Richland,ATLANTIC,8350,,,COASTAL
622,Atlantic City,ATLANTIC,8401,,,COASTAL
623,Margate City,ATLANTIC,8402,,,COASTAL
624,Longport,ATLANTIC,8403,,,COASTAL
625,Atlantic City,ATLANTIC,8404,,,COASTAL
626,Atlantic City,ATLANTIC,8405,,,COASTAL
627,Ventnor City,ATLANTIC,8406,,,COASTAL
628,Avalon,CAPE MAY,8202,,,COASTAL
629,Cape May,CAPE MAY,8204,,,COASTAL
630,Cape May Court House,CAPE MAY,8210,,,COASTAL
631,Cape May Point,CAPE MAY,8212,,,COASTAL
632,Dennisville,CAPE MAY,8214,,,COASTAL
633,Goshen,CAPE MAY,8218,,,COASTAL
634,Green Creek,CAPE MAY,8219,,,COASTAL
635,Marmora,CAPE MAY,8223,,,COASTAL
636,Ocean City,CAPE MAY,8226,,,COASTAL
637,Ocean View,CAPE MAY,8230,,,COASTAL
638,Rio Grande,CAPE MAY,8242,,,COASTAL
639,Sea Isle City,CAPE MAY,8243,,,COASTAL
640,South Dennis,CAPE MAY,8245,,,COASTAL
641,South Seaville,CAPE MAY,8246,,,COASTAL
642,Stone Harbor,CAPE MAY,8247,,,COASTAL
643,Strathmere,CAPE MAY,8248,,,COASTAL
644,Tuckahoe,CAPE MAY,8250,,,COASTAL
645,Villas,CAPE MAY,8251,,,COASTAL
646,Whitesboro,CAPE MAY,8252,,,COASTAL
647,Wildwood,CAPE MAY,8260,,,COASTAL
648,Woodbine,CAPE MAY,8270,,,COASTAL
649,Red Bank,MONMOUTH,7701,,,COASTAL
650,Shrewsbury,MONMOUTH,7702,,,COASTAL
651,Fort Monmouth,MONMOUTH,7703,,,COASTAL
652,Fair Haven,MONMOUTH,7704,,,COASTAL
653,Red Bank,MONMOUTH,7709,,,COASTAL
654,Adelphia,MONMOUTH,7710,,,COASTAL
655,Allenhurst,MONMOUTH,7711,,,COASTAL
656,Asbury Park,MONMOUTH,7712,,,COASTAL
657,Belmar,MONMOUTH,7715,,,COASTAL
658,Atlantic Highlands,MONMOUTH,7716,,,COASTAL
659,Avon By The Sea,MONMOUTH,7717,,,COASTAL
660,Belford,MONMOUTH,7718,,,COASTAL
661,Belmar,MONMOUTH,7719,,,COASTAL
662,Bradley Beach,MONMOUTH,7720,,,COASTAL
663,Cliffwood,MONMOUTH,7721,,,COASTAL
664,Colts Neck,MONMOUTH,7722,,,COASTAL
665,Deal,MONMOUTH,7723,,,COASTAL
666,Eatontown,MONMOUTH,7724,,,COASTAL
667,Englishtown,MONMOUTH,7726,,,COASTAL
668,Farmingdale,MONMOUTH,7727,,,COASTAL
669,Freehold,MONMOUTH,7728,,,COASTAL
670,Hazlet,MONMOUTH,7730,,,COASTAL
671,Howell,MONMOUTH,7731,,,COASTAL
672,Highlands,MONMOUTH,7732,,,COASTAL
673,Holmdel,MONMOUTH,7733,,,COASTAL
674,Keansburg,MONMOUTH,7734,,,COASTAL
675,Keyport,MONMOUTH,7735,,,COASTAL
676,Leonardo,MONMOUTH,7737,,,COASTAL
677,Lincroft,MONMOUTH,7738,,,COASTAL
678,Little Silver,MONMOUTH,7739,,,COASTAL
679,Long Branch,MONMOUTH,7740,,,COASTAL
680,Marlboro,MONMOUTH,7746,,,COASTAL
681,Matawan,MONMOUTH,7747,,,COASTAL
682,Middletown,MONMOUTH,7748,,,COASTAL
683,Monmouth Beach,MONMOUTH,7750,,,COASTAL
684,Morganville,MONMOUTH,7751,,,COASTAL
685,Navesink,MONMOUTH,7752,,,COASTAL
686,Neptune,MONMOUTH,7753,,,COASTAL
687,Neptune,MONMOUTH,7754,,,COASTAL
688,Oakhurst,MONMOUTH,7755,,,COASTAL
689,Ocean Grove,MONMOUTH,7756,,,COASTAL
690,Oceanport,MONMOUTH,7757,,,COASTAL
691,Port Monmouth,MONMOUTH,7758,,,COASTAL
692,Rumson,MONMOUTH,7760,,,COASTAL
693,Spring Lake,MONMOUTH,7762,,,COASTAL
694,Tennent,MONMOUTH,7763,,,COASTAL
695,West Long Branch,MONMOUTH,7764,,,COASTAL
696,Wickatunk,MONMOUTH,7765,,,COASTAL
697,Holmdel,MONMOUTH,7777,,,COASTAL
698,Eatontown,MONMOUTH,7799,,,COASTAL
699,Allentown,MONMOUTH,8501,,,COASTAL
700,Millstone Township,MONMOUTH,8510,,,COASTAL
701,Cream Ridge,MONMOUTH,8514,,,COASTAL
702,Imlaystown,MONMOUTH,8526,,,COASTAL
703,Perrineville,MONMOUTH,8535,,,COASTAL
704,Roosevelt,MONMOUTH,8555,,,COASTAL
705,Allenwood,MONMOUTH,8720,,,COASTAL
706,Brielle,MONMOUTH,8730,,,COASTAL
707,Manasquan,MONMOUTH,8736,,,COASTAL
708,Sea Girt,MONMOUTH,8750,,,COASTAL
709,Barnegat,OCEAN,8005,,,COASTAL
710,Barnegat Light,OCEAN,8006,,,COASTAL
711,Beach Haven,OCEAN,8008,,,COASTAL
712,Manahawkin,OCEAN,8050,,,COASTAL
713,Tuckerton,OCEAN,8087,,,COASTAL
714,West Creek,OCEAN,8092,,,COASTAL
715,Jackson,OCEAN,8527,,,COASTAL
716,New Egypt,OCEAN,8533,,,COASTAL
717,Lakewood,OCEAN,8701,,,COASTAL
718,Bayville,OCEAN,8721,,,COASTAL
719,Beachwood,OCEAN,8722,,,COASTAL
720,Brick,OCEAN,8723,,,COASTAL
721,Brick,OCEAN,8724,,,COASTAL
722,Forked River,OCEAN,8731,,,COASTAL
723,Island Heights,OCEAN,8732,,,COASTAL
724,Lakehurst,OCEAN,8733,,,COASTAL
725,Lanoka Harbor,OCEAN,8734,,,COASTAL
726,Lavallette,OCEAN,8735,,,COASTAL
727,Mantoloking,OCEAN,8738,,,COASTAL
728,Normandy Beach,OCEAN,8739,,,COASTAL
729,Ocean Gate,OCEAN,8740,,,COASTAL
730,Pine Beach,OCEAN,8741,,,COASTAL
731,Point Pleasant Beach,OCEAN,8742,,,COASTAL
732,Seaside Heights,OCEAN,8751,,,COASTAL
733,Seaside Park,OCEAN,8752,,,COASTAL
734,Toms River,OCEAN,8753,,,COASTAL
735,Toms River,OCEAN,8754,,,COASTAL
736,Toms River,OCEAN,8755,,,COASTAL
737,Toms River,OCEAN,8756,,,COASTAL
738,Toms River,OCEAN,8757,,,COASTAL
739,Waretown,OCEAN,8758,,,COASTAL
740,Manchester Township,OCEAN,8759,,,COASTAL
